OBJECT_NAME,OBJECT_ID,EPOCH,MEAN_MOTION,ECCENTRICITY,INCLINATION,RA_OF_ASC_NODE,ARG_OF_PERICENTER,MEAN_ANOMALY,EPHEMERIS_TYPE,CLASSIFICATION_TYPE,NORAD_CAT_ID,ELEMENT_SET_NO,REV_AT_EPOCH,BSTAR,MEAN_MOTION_DOT,MEAN_MOTION_DDOT
TPA-1,2025-135F,2026-07-20T06:47:25.252224,15.21765299,.0006555,97.4711,315.9736,80.4241,279.7735,0,U,64533,999,5988,.20415455E-3,.4561E-4,0
CONNECTA IOT-9,2025-135G,2026-07-20T19:48:04.904064,15.20182606,.0006529,97.4785,316.4050,63.2968,296.8935,0,U,64534,999,5993,.91445121E-4,.1911E-4,0
ROADS 1,2025-135H,2026-07-21T02:42:37.994400,15.22818623,.00057274,97.4698,316.9507,71.3491,288.8367,0,U,64535,999,6002,.18472543E-3,.4251E-4,0
FOSSASAT-2E21,2025-135J,2026-07-21T01:09:29.841984,15.20123707,.00057134,97.4672,316.0207,75.8896,284.2974,0,U,64536,999,5996,.82195498E-4,.1708E-4,0
OTTER PUP 2,2025-135K,2026-07-21T03:18:50.143104,15.23147002,.00045912,97.4758,317.5025,71.6758,288.4977,0,U,64537,999,6004,.12435722E-3,.2866E-4,0
IOD-2,2025-135L,2026-07-20T19:28:18.278688,15.20595970,.00059721,97.4725,316.1118,70.2860,289.9019,0,U,64538,999,5993,.11077413E-3,.2359E-4,0
ELARASAT MMS-1,2025-135M,2026-07-19T21:21:22.465440,15.23128253,.00038318,97.4771,316.2572,70.9236,289.2415,0,U,64539,999,5985,.22090635E-3,.5143E-4,0
ARCSTONE,2025-135N,2026-07-20T20:31:59.562336,15.33777223,.00037385,97.4638,319.6770,91.5874,268.5797,0,U,64540,999,6019,.40562412E-3,.1318E-3,0
PULSAR-0,2025-135P,2026-07-21T01:11:07.460160,15.20432976,.00045127,97.4727,316.3870,76.6572,283.5166,0,U,64541,999,5997,.88928452E-4,.187E-4,0
T1DES 1 (DRAGOON 1),2025-135Q,2026-07-21T01:52:43.537152,15.26452075,.00040986,97.4725,318.2393,75.4802,284.6891,0,U,64542,999,6009,.27050713E-3,.6979E-4,0
SKYBEE-A02,2025-135S,2026-07-21T07:08:51.853632,15.20253083,.00029295,97.4759,316.8217,61.7299,298.4231,0,U,64544,999,6001,.85642287E-4,.1789E-4,0
ION SCV-020,2025-135T,2026-07-21T06:45:59.322240,15.19415958,.00086647,97.4637,316.8099,43.0054,317.1856,0,U,64545,999,6002,.92678097E-4,.1895E-4,0
FORGESTAR-1,2025-135U,2026-07-21T01:01:08.350464,15.24682115,.00020563,97.4713,317.7169,91.0589,269.0884,0,U,64546,999,6006,.27865956E-3,.6816E-4,0
TRANSPORTER-14 OBJECT V,2025-135V,2026-07-20T20:05:28.439808,15.25561764,.00023442,97.4651,317.5272,108.1167,252.0327,0,U,64547,999,6005,.21665728E-3,.5425E-4,0
GHGSAT-C13,2025-135W,2026-07-21T06:11:59.216928,15.21443309,.00015862,97.4800,317.3991,63.2100,296.9298,0,U,64548,999,6003,.19862434E-3,.4391E-4,0
ROADS 2,2025-135X,2026-07-20T19:12:56.179872,15.24214225,.0001581,97.4811,317.9097,52.6706,307.4675,0,U,64549,999,6003,.16386266E-3,.3921E-4,0
BRO-18,2025-135Y,2026-07-21T07:19:22.627200,15.22201105,.0002637,97.4653,317.0787,108.1961,251.9563,0,U,64550,999,6006,.11867191E-3,.2655E-4,0
SATMAR,2025-135Z,2026-07-20T20:10:00.024384,15.25394908,.00025606,97.4641,317.4930,119.3136,240.8358,0,U,64551,999,6005,.20458506E-3,.5093E-4,0
HYPERFIELD-1B,2025-135AA,2026-07-21T07:19:51.559104,15.22576759,.00019849,97.4699,317.4123,126.8196,233.3223,0,U,64552,999,6007,.13740806E-3,.312E-4,0
CONNECTA IOT-12,2025-135AB,2026-07-20T20:03:45.629856,15.20618049,.00005614,97.4770,317.0619,81.3335,278.7964,0,U,64553,999,5998,.96748714E-4,.2052E-4,0
TRANSPORTER-14 OBJECT AC,2025-135AC,2026-07-21T02:00:32.111136,15.31920833,.00024869,97.4663,319.4487,160.7712,199.3623,0,U,64554,999,6019,.49101792E-3,.15069E-3,0
CONNECTA IOT-10,2025-135AD,2026-07-21T02:48:54.280224,15.20583396,.00016392,97.4710,316.8329,128.7993,231.3389,0,U,64555,999,6001,.98155486E-4,.2081E-4,0
TRANSPORTER-14 OBJECT AE,2025-135AE,2026-07-21T06:45:18.376416,15.26304957,.00003968,97.4768,318.9046,20.5752,339.5502,0,U,64556,999,6014,.24718873E-3,.6341E-4,0
CONNECTA IOT-11,2025-135AF,2026-07-20T19:12:04.988736,15.20642194,.00010325,97.4743,316.8131,155.7376,204.3909,0,U,64557,999,5997,.88426061E-4,.1871E-4,0
QUICK3,2025-135AG,2026-07-21T01:00:20.573856,15.28013737,.00057556,97.4765,318.6257,57.5912,302.5884,0,U,64558,999,6002,.31730362E-3,.8601E-4,0
PADRE,2025-135AH,2026-07-20T20:48:24.655392,14.92583191,.00029664,97.7748,315.1055,127.9877,232.1610,0,U,64559,999,5887,.12302962E-3,.1209E-4,0
TRANSPORTER-14 OBJECT AJ,2025-135AJ,2026-07-20T20:32:39.718464,14.95869316,.0001995,97.7754,316.2824,123.5506,236.5905,0,U,64560,999,5894,.28198605E-3,.3094E-4,0
LEMUR-2-KRISH,2025-135AK,2026-07-21T01:04:11.848512,14.96474549,.00011369,97.7761,316.6976,108.7454,251.3890,0,U,64561,999,5898,.27924101E-3,.3112E-4,0
HUBBLE 6,2025-135AL,2026-07-20T21:14:27.208896,14.93667953,.00014922,97.7774,315.6982,92.6899,267.4492,0,U,64562,999,5890,.85821412E-4,.85E-5,0
AE3VA,2025-135AM,2026-07-20T21:43:46.415712,14.97500815,.0003341,97.7695,316.6014,148.3855,211.7568,0,U,64563,999,5898,.32081872E-3,.3681E-4,0
