TPA-1                   
1 64533U 25135F   26201.28293116  .00004561  00000+0  20415-3 0  9990
2 64533  97.4711 315.9736 0006555  80.4241 279.7735 15.21765299 59883
CONNECTA IOT-9          
1 64534U 25135G   26201.82505676  .00001911  00000+0  91445-4 0  9996
2 64534  97.4785 316.4050 0006529  63.2968 296.8935 15.20182606 59938
ROADS 1                 
1 64535U 25135H   26202.11293975  .00004251  00000+0  18473-3 0  9995
2 64535  97.4698 316.9507 0005727  71.3491 288.8367 15.22818623 60023
FOSSASAT-2E21           
1 64536U 25135J   26202.04826206  .00001708  00000+0  82195-4 0  9994
2 64536  97.4672 316.0207 0005713  75.8896 284.2974 15.20123707 59962
OTTER PUP 2             
1 64537U 25135K   26202.13808036  .00002866  00000+0  12436-3 0  9992
2 64537  97.4758 317.5025 0004591  71.6758 288.4977 15.23147002 60043
IOD-2                   
1 64538U 25135L   26201.81132267  .00002359  00000+0  11077-3 0  9990
2 64538  97.4725 316.1118 0005972  70.2860 289.9019 15.20595970 59936
ELARASAT MMS-1          
1 64539U 25135M   26200.88984335  .00005143  00000+0  22091-3 0  9990
2 64539  97.4771 316.2572 0003831  70.9236 289.2415 15.23128253 59852
ARCSTONE                
1 64540U 25135N   26201.85555049  .00013180  00000+0  40562-3 0  9999
2 64540  97.4638 319.6770 0003738  91.5874 268.5797 15.33777223 60196
PULSAR-0                
1 64541U 25135P   26202.04939190  .00001870  00000+0  88928-4 0  9997
2 64541  97.4727 316.3870 0004512  76.6572 283.5166 15.20432976 59971
T1DES 1 (DRAGOON 1)     
1 64542U 25135Q   26202.07828168  .00006979  00000+0  27051-3 0  9997
2 64542  97.4725 318.2393 0004098  75.4802 284.6891 15.26452075 60093
SKYBEE-A02              
1 64544U 25135S   26202.29782238  .00001789  00000+0  85642-4 0  9995
2 64544  97.4759 316.8217 0002929  61.7299 298.4231 15.20253083 60015
ION SCV-020             
1 64545U 25135T   26202.28193660  .00001895  00000+0  92678-4 0  9995
2 64545  97.4637 316.8099 0008664  43.0054 317.1856 15.19415958 60025
FORGESTAR-1             
1 64546U 25135U   26202.04245776  .00006816  00000+0  27866-3 0  9990
2 64546  97.4713 317.7169 0002056  91.0589 269.0884 15.24682115 60061
TRANSPORTER-14 OBJECT V 
1 64547U 25135V   26201.83713472  .00005425  00000+0  21666-3 0  9997
2 64547  97.4651 317.5272 0002344 108.1167 252.0327 15.25561764 60058
GHGSAT-C13              
1 64548U 25135W   26202.25832427  .00004391  00000+0  19862-3 0  9993
2 64548  97.4800 317.3991 0001586  63.2100 296.9298 15.21443309 60038
ROADS 2                 
1 64549U 25135X   26201.80065023  .00003921  00000+0  16386-3 0  9990
2 64549  97.4811 317.9097 0001581  52.6706 307.4675 15.24214225 60036
BRO-18                  
1 64550U 25135Y   26202.30512300  .00002655  00000+0  11867-3 0  9995
2 64550  97.4653 317.0787 0002637 108.1961 251.9563 15.22201105 60065
SATMAR                  
1 64551U 25135Z   26201.84027806  .00005093  00000+0  20459-3 0  9992
2 64551  97.4641 317.4930 0002560 119.3136 240.8358 15.25394908 60055
HYPERFIELD-1B           
1 64552U 25135AA  26202.30545786  .00003120  00000+0  13741-3 0  9992
2 64552  97.4699 317.4123 0001984 126.8196 233.3223 15.22576759 60074
CONNECTA IOT-12         
1 64553U 25135AB  26201.83594479  .00002052  00000+0  96749-4 0  9996
2 64553  97.4770 317.0619 0000561  81.3335 278.7964 15.20618049 59981
TRANSPORTER-14 OBJECT AC
1 64554U 25135AC  26202.08370499  .00015069  00000+0  49102-3 0  9991
2 64554  97.4663 319.4487 0002486 160.7712 199.3623 15.31920833 60195
CONNECTA IOT-10         
1 64555U 25135AD  26202.11729491  .00002081  00000+0  98155-4 0  9999
2 64555  97.4710 316.8329 0001639 128.7993 231.3389 15.20583396 60013
TRANSPORTER-14 OBJECT AE
1 64556U 25135AE  26202.28146269  .00006341  00000+0  24719-3 0  9991
2 64556  97.4768 318.9046 0000396  20.5752 339.5502 15.26304957 60149
CONNECTA IOT-11         
1 64557U 25135AF  26201.80005774  .00001871  00000+0  88426-4 0  9993
2 64557  97.4743 316.8131 0001032 155.7376 204.3909 15.20642194 59977
QUICK3                  
1 64558U 25135AG  26202.04190479  .00008601  00000+0  31730-3 0  9991
2 64558  97.4765 318.6257 0005755  57.5912 302.5884 15.28013737 60026
PADRE                   
1 64559U 25135AH  26201.86695203  .00001209  00000+0  12303-3 0  9998
2 64559  97.7748 315.1055 0002966 127.9877 232.1610 14.92583191 58873
TRANSPORTER-14 OBJECT AJ
1 64560U 25135AJ  26201.85601526  .00003094  00000+0  28199-3 0  9998
2 64560  97.7754 316.2824 0001995 123.5506 236.5905 14.95869316 58942
LEMUR-2-KRISH           
1 64561U 25135AK  26202.04458158  .00003112  00000+0  27924-3 0  9998
2 64561  97.7761 316.6976 0001136 108.7454 251.3890 14.96474549 58980
HUBBLE 6                
1 64562U 25135AL  26201.88503714  .00000850  00000+0  85821-4 0  9996
2 64562  97.7774 315.6982 0001492  92.6899 267.4492 14.93667953 58908
AE3VA                   
1 64563U 25135AM  26201.90539833  .00003681  00000+0  32082-3 0  9996
2 64563  97.7695 316.6014 0003341 148.3855 211.7568 14.97500815 58985
